COMMENT,ORIGINATOR,NORAD_CAT_ID,OBJECT_NAME,OBJECT_TYPE,CLASSIFICATION_TYPE,INTLDES,EPOCH,EPOCH_MICROSECONDS,MEAN_MOTION,ECCENTRICITY,INCLINATION,RA_OF_ASC_NODE,ARG_OF_PERICENTER,MEAN_ANOMALY,EPHEMERIS_TYPE,ELEMENT_SET_NO,REV_AT_EPOCH,BSTAR,MEAN_MOTION_DOT,MEAN_MOTION_DDOT,FILE,TLE_LINE0,TLE_LINE1,TLE_LINE2,OBJECT_ID,OBJECT_NUMBER,SEMIMAJOR_AXIS,PERIOD,APOGEE,PERIGEE,DECAYED,date
GENERATED VIA SPACETRACK.ORG API,18 SPCS,52183,SPACEBEE-133,PAYLOAD,U,22033AC,2023/4/9 4:17,285728,15.3965358,0.0005197,97.3502,182.4163,64.5495,295.6288,0,999,5683,0.0014142,0.00056062,0,3884332,0 SPACEBEE-133,1 52183U 22033AC  23099.17859127  .00056062  00000-0  14142-2 0  9995,2 52183  97.3502 182.4163 0005197  64.5495 295.6288 15.39653580 56834,2022-033AC,52183,6825.27,93.528,450.682,443.588,1,
GENERATED VIA SPACETRACK.ORG API,18 SPCS,52183,SPACEBEE-133,PAYLOAD,U,22033AC,2023/4/9 18:19,41088,15.39715699,0.0005221,97.3498,183.004,62.1252,298.0522,0,999,5691,0.0013738,0.00054559,0,3884606,0 SPACEBEE-133,1 52183U 22033AC  23099.76350742  .00054559  00000-0  13738-2 0  9998,2 52183  97.3498 183.0040 0005221  62.1252 298.0522 15.39715699 56919,2022-033AC,52183,6825.086,93.524,450.515,443.388,1,
GENERATED VIA SPACETRACK.ORG API,18 SPCS,52183,SPACEBEE-133,PAYLOAD,U,22033AC,2023/4/9 18:19,41088,15.39715699,0.0005221,97.3498,183.004,62.1252,298.0522,0,999,5692,0.0013738,0.00054559,0,3884641,0 SPACEBEE-133,1 52183U 22033AC  23099.76350742  .00054559  00000-0  13738-2 0  9998,2 52183  97.3498 183.0040 0005221  62.1252 298.0522 15.39715699 56920,2022-033AC,52183,6825.086,93.524,450.515,443.388,1,
GENERATED VIA SPACETRACK.ORG API,18 SPCS,52183,SPACEBEE-133,PAYLOAD,U,22033AC,2023/4/10 5:14,853472,15.39772668,0.0005138,97.3497,183.4605,61.0794,299.0967,0,999,5699,0.0014508,0.00057752,0,3885195,0 SPACEBEE-133,1 52183U 22033AC  23100.21842423  .00057752  00000-0  14508-2 0  9997,2 52183  97.3497 183.4605 0005138  61.0794 299.0967 15.39772668 56996,2022-033AC,52183,6824.918,93.52,450.29,443.276,1,
GENERATED VIA SPACETRACK.ORG API,18 SPCS,52183,SPACEBEE-133,PAYLOAD,U,22033AC,2023/4/11 4:38,448384,15.39895227,0.0005025,97.3494,184.4396,57.0633,303.1096,0,999,5714,0.0013041,0.00052074,0,3885783,0 SPACEBEE-133,1 52183U 22033AC  23101.19318806  .00052074  00000-0  13041-2 0  9991,2 52183  97.3494 184.4396 0005025  57.0633 303.1096 15.39895227 57148,2022-033AC,52183,6824.556,93.513,449.85,442.992,1,
GENERATED VIA SPACETRACK.ORG API,18 SPCS,52183,SPACEBEE-133,PAYLOAD,U,22033AC,2023/4/11 15:33,714400,15.39950961,0.0005066,97.3495,184.897,54.1671,306.0045,0,999,5720,0.0015552,0.00062313,0,3885900,0 SPACEBEE-133,1 52183U 22033AC  23101.64805225  .00062313  00000-0  15552-2 0  9993,2 52183  97.3495 184.8970 0005066  54.1671 306.0045 15.39950961 57206,2022-033AC,52183,6824.391,93.509,449.713,442.799,1,
GENERATED VIA SPACETRACK.ORG API,18 SPCS,52183,SPACEBEE-133,PAYLOAD,U,22033AC,2023/4/11 15:33,714400,15.39950961,0.0005066,97.3495,184.897,54.1671,306.0045,0,999,5721,0.0015552,0.00062313,0,3885919,0 SPACEBEE-133,1 52183U 22033AC  23101.64805225  .00062313  00000-0  15552-2 0  9993,2 52183  97.3495 184.8970 0005066  54.1671 306.0045 15.39950961 57217,2022-033AC,52183,6824.391,93.509,449.713,442.799,1,
GENERATED VIA SPACETRACK.ORG API,18 SPCS,52183,SPACEBEE-133,PAYLOAD,U,22033AC,2023/4/12 5:35,393792,15.40025493,0.0004974,97.3499,185.4844,52.1339,308.0356,0,999,5730,0.001266,0.00050757,0,3886349,0 SPACEBEE-133,1 52183U 22033AC  23102.23285178  .00050757  00000-0  12660-2 0  9994,2 52183  97.3499 185.4844 0004974  52.1339 308.0356 15.40025493 57306,2022-033AC,52183,6824.171,93.505,449.43,442.642,1,
GENERATED VIA SPACETRACK.ORG API,18 SPCS,52183,SPACEBEE-133,PAYLOAD,U,22033AC,2023/4/13 4:58,523264,15.40142961,0.0004893,97.3501,186.4638,48.0835,312.0827,0,999,5745,0.0014708,0.00059274,0,3886564,0 SPACEBEE-133,1 52183U 22033AC  23103.20745976  .00059274  00000-0  14708-2 0  9997,2 52183  97.3501 186.4638 0004893  48.0835 312.0827 15.40142961 57451,2022-033AC,52183,6823.824,93.498,449.028,442.35,1,
GENERATED VIA SPACETRACK.ORG API,18 SPCS,52183,SPACEBEE-133,PAYLOAD,U,22033AC,2023/4/13 4:58,523264,15.40142961,0.0004893,97.3501,186.4638,48.0835,312.0827,0,999,5744,0.0014708,0.00059274,0,3886928,0 SPACEBEE-133,1 52183U 22033AC  23103.20745976  .00059274  00000-0  14708-2 0  9997,2 52183  97.3501 186.4638 0004893  48.0835 312.0827 15.40142961 57440,2022-033AC,52183,6823.824,93.498,449.028,442.35,1,
GENERATED VIA SPACETRACK.ORG API,18 SPCS,52183,SPACEBEE-133,PAYLOAD,U,22033AC,2023/4/14 4:22,874656,15.40273411,0.0004818,97.35,187.4429,43.2205,316.9418,0,999,5760,0.0016715,0.00067737,0,3887333,0 SPACEBEE-133,1 52183U 22033AC  23104.18198929  .00067737  00000-0  16715-2 0  9998,2 52183  97.3500 187.4429 0004818  43.2205 316.9418 15.40273411 57605,2022-033AC,52183,6823.439,93.49,448.591,442.016,1,
GENERATED VIA SPACETRACK.ORG API,18 SPCS,52183,SPACEBEE-133,PAYLOAD,U,22033AC,2023/4/15 5:18,358656,15.40427854,0.0004713,97.3497,188.4871,39.1216,321.0371,0,999,5776,0.0017674,0.00072032,0,3887974,0 SPACEBEE-133,1 52183U 22033AC  23105.22139304  .00072032  00000-0  17674-2 0  9995,2 52183  97.3497 188.4871 0004713  39.1216 321.0371 15.40427854 57766,2022-033AC,52183,6822.983,93.481,448.063,441.632,1,
GENERATED VIA SPACETRACK.ORG API,18 SPCS,52183,SPACEBEE-133,PAYLOAD,U,22033AC,2023/4/15 19:20,284736,15.40517531,0.0004695,97.3494,189.0749,35.1758,324.9797,0,999,5785,0.0018925,0.00077418,0,3888171,0 SPACEBEE-133,1 52183U 22033AC  23105.80601024  .00077418  00000-0  18925-2 0  9995,2 52183  97.3494 189.0749 0004695  35.1758 324.9797 15.40517531 57856,2022-033AC,52183,6822.718,93.475,447.786,441.38,1,
GENERATED VIA SPACETRACK.ORG API,18 SPCS,52183,SPACEBEE-133,PAYLOAD,U,22033AC,2023/4/16 10:55,960992,15.40618563,0.0004648,97.3498,189.728,32.2006,327.9523,0,999,5794,0.0019146,0.00078595,0,3888591,0 SPACEBEE-133,1 52183U 22033AC  23106.45554353  .00078595  00000-0  19146-2 0  9992,2 52183  97.3498 189.7280 0004648  32.2006 327.9523 15.40618563 57946,2022-033AC,52183,6822.42,93.469,447.456,441.113,1,
GENERATED VIA SPACETRACK.ORG API,18 SPCS,52183,SPACEBEE-133,PAYLOAD,U,22033AC,2023/4/16 10:55,960992,15.40618563,0.0004648,97.3498,189.728,32.2006,327.9523,0,999,5795,0.0019146,0.00078595,0,3888626,0 SPACEBEE-133,1 52183U 22033AC  23106.45554353  .00078595  00000-0  19146-2 0  9992,2 52183  97.3498 189.7280 0004648  32.2006 327.9523 15.40618563 57957,2022-033AC,52183,6822.42,93.469,447.456,441.113,1,
GENERATED VIA SPACETRACK.ORG API,18 SPCS,52183,SPACEBEE-133,PAYLOAD,U,22033AC,2023/4/16 18:43,425792,15.40671084,0.0004655,97.3499,190.0544,30.2015,329.9499,0,999,5800,0.0018824,0.00077394,0,3888799,0 SPACEBEE-133,1 52183U 22033AC  23106.78029428  .00077394  00000-0  18824-2 0  9996,2 52183  97.3499 190.0544 0004655  30.2015 329.9499 15.40671084 58000,2022-033AC,52183,6822.265,93.466,447.305,440.954,1,
GENERATED VIA SPACETRACK.ORG API,18 SPCS,52183,SPACEBEE-133,PAYLOAD,U,22033AC,2023/4/17 4:04,299648,15.40734524,0.000456,97.3501,190.4462,29.1486,331.0014,0,999,5806,0.0018425,0.00075894,0,3889215,0 SPACEBEE-133,1 52183U 22033AC  23107.16998032  .00075894  00000-0  18425-2 0  9995,2 52183  97.3501 190.4462 0004560  29.1486 331.0014 15.40734524 58063,2022-033AC,52183,6822.077,93.462,447.053,440.831,1,
GENERATED VIA SPACETRACK.ORG API,18 SPCS,52183,SPACEBEE-133,PAYLOAD,U,22033AC,2023/4/17 16:32,240448,15.40808384,0.0004626,97.35,190.9691,26.5913,333.557,0,999,5813,0.0019283,0.00079666,0,3889365,0 SPACEBEE-133,1 52183U 22033AC  23107.68953982  .00079666  00000-0  19283-2 0  9991,2 52183  97.3500 190.9691 0004626  26.5913 333.5570 15.40808384 58138,2022-033AC,52183,6821.859,93.457,446.88,440.568,1,
GENERATED VIA SPACETRACK.ORG API,18 SPCS,52183,SPACEBEE-133,PAYLOAD,U,22033AC,2023/4/17 16:32,240448,15.40808384,0.0004626,97.35,190.9691,26.5913,333.557,0,999,5814,0.0019283,0.00079666,0,3889391,0 SPACEBEE-133,1 52183U 22033AC  23107.68953982  .00079666  00000-0  19283-2 0  9991,2 52183  97.3500 190.9691 0004626  26.5913 333.5570 15.40808384 58149,2022-033AC,52183,6821.859,93.457,446.88,440.568,1,
GENERATED VIA SPACETRACK.ORG API,18 SPCS,52183,SPACEBEE-133,PAYLOAD,U,22033AC,2023/4/18 5:01,861408,15.40887562,0.0004517,97.35,191.4911,24.3285,335.8174,0,999,5822,0.0017209,0.00071195,0,3889684,0 SPACEBEE-133,1 52183U 22033AC  23108.20907247  .00071195  00000-0  17209-2 0  9998,2 52183  97.3500 191.4911 0004517  24.3285 335.8174 15.40887562 58226,2022-033AC,52183,6821.626,93.453,446.572,440.409,1,
GENERATED VIA SPACETRACK.ORG API,18 SPCS,52183,SPACEBEE-133,PAYLOAD,U,22033AC,2023/4/18 17:29,378528,15.40962047,0.0004562,97.3498,192.0142,20.865,339.2782,0,999,5829,0.0020487,0.00085135,0,3889933,0 SPACEBEE-133,1 52183U 22033AC  23108.72858077  .00085135  00000-0  20487-2 0  9992,2 52183  97.3498 192.0142 0004562  20.8650 339.2782 15.40962047 58294,2022-033AC,52183,6821.406,93.448,446.383,440.159,1,
GENERATED VIA SPACETRACK.ORG API,18 SPCS,52183,SPACEBEE-133,PAYLOAD,U,22033AC,2023/4/18 17:29,378528,15.40962047,0.0004562,97.3498,192.0142,20.865,339.2782,0,999,5830,0.0020487,0.00085135,0,3889987,0 SPACEBEE-133,1 52183U 22033AC  23108.72858077  .00085135  00000-0  20487-2 0  9992,2 52183  97.3498 192.0142 0004562  20.8650 339.2782 15.40962047 58306,2022-033AC,52183,6821.406,93.448,446.383,440.159,1,
GENERATED VIA SPACETRACK.ORG API,18 SPCS,52183,SPACEBEE-133,PAYLOAD,U,22033AC,2023/4/19 4:23,279072,15.41034113,0.0004478,97.3498,192.471,19.1148,341.0266,0,999,5837,0.0019779,0.00082355,0,3890383,0 SPACEBEE-133,1 52183U 22033AC  23109.18312823  .00082355  00000-0  19779-2 0  9990,2 52183  97.3498 192.4710 0004478  19.1148 341.0266 15.41034113 58370,2022-033AC,52183,6821.193,93.444,446.113,440.003,1,
